#aV2008  6 15  0  0   .00000000      96 DD+AD WGS84 FIT  NGA
## 1484       .00000000   900.00000000 54632  .0000000000000
+   31     2  3  4  5  6  7  8  9 10 11 12 13 14 15 16 17 18
+         19 20 21 22 23 24 25 26 27 28 29 30 31 32  0  0  0
+          0  0  0  0  0  0  0  0  0  0  0  0  0  0  0  0  0
+          0  0  0  0  0  0  0  0  0  0  0  0  0  0  0  0  0
+          0  0  0  0  0  0  0  0  0  0  0  0  0  0  0  0  0
++         0  0  0  0  0  0  0  0  0  0  0  0  0  0  0  0  0
++         0  0  0  0  0  0  0  0  0  0  0  0  0  0  0  0  0
++         0  0  0  0  0  0  0  0  0  0  0  0  0  0  0  0  0
++         0  0  0  0  0  0  0  0  0  0  0  0  0  0  0  0  0
++         0  0  0  0  0  0  0  0  0  0  0  0  0  0  0  0  0
%c cc cc ccc ccc cccc cccc cccc cccc ccccc ccccc ccccc ccccc
%c cc cc ccc ccc cccc cccc cccc cccc ccccc ccccc ccccc ccccc
%f  0.0000000  0.000000000  0.00000000000  0.000000000000000
%f  0.0000000  0.000000000  0.00000000000  0.000000000000000
%i    0    0    0    0      0      0      0      0         0
%i    0    0    0    0      0      0      0      0         0
/*      NGA, ST. LOUIS,MO.                                  
/*   EPHEMERIS COMPUTED FROM  3 DAYS OF DATA                
/* CCCCCCCCCCCCCCCCCCCCCCCCCCCCCCCCCCCCCCCCCCCCCCCCCCCCCCCCC
/* CCCCCCCCCCCCCCCCCCCCCCCCCCCCCCCCCCCCCCCCCCCCCCCCCCCCCCCCC
*  2008  6 15  0  0   .00000000                                                 
P  2 -23146.210399  12512.542229  -1813.269776    206.057969                    
V  2    -62.107000  -4246.390921 -31486.631027      -.004189                    
P  3  12128.789339 -14481.253717  18277.425239    242.207474                    
V  3   5034.776038  23557.238215  15463.905445       .052160                    
P  4 -23817.078744   4208.558600 -11480.477938    -91.145878                    
V  4  11099.046043  -9431.641789 -26350.928060      -.091410                    
P  5   6776.339636  17907.803842 -18738.093451   -391.048402                    
V  5 -21862.290844  -8039.164950 -15678.116972       .096917                    
P  6  14606.311027  -9269.420845  20356.095281    147.902731                    
V  6   2501.138921  25414.262115   9847.597684       .061423                    
P  7  -6565.735417 -13705.502807  21752.395727    -20.927210                    
V  7  23891.872722 -13985.642413  -1670.116579       .072877                    
P  8 -18147.771862  -4691.647788  18922.441067   -157.471913                    
V  8  20846.021996 -11879.787475  16513.086416      -.017703                    
P  9  -8754.587739  19188.069465 -16682.334767       .829964                    
V  9 -17678.151578   9555.100185  21230.618255       .017431                    
P 10 -17016.547733   5691.985346  19550.576235     -2.232496                    
V 10 -20964.313181 -13686.474514 -13843.612576      -.002110                    
P 11   4006.240275 -20832.209625 -15943.765199     24.634966                    
V 11  17415.081169 -11054.826602  19338.764081      -.004184                    
P 12   1348.250878  16954.643118 -20335.246516   -358.505619                    
V 12 -23104.862964 -11929.817872 -11333.057640       .004177                    
P 13  -6479.616905 -23137.175387  11217.876995    259.820288                    
V 13   1999.690276 -14316.361831 -28052.139228       .016016                    
P 14  13758.237767   8156.615088 -21127.334113   -255.383076                    
V 14  -1006.918865  26941.504039   9601.050634       .042935                    
P 15  -7621.632774  22646.875742  11606.072200   -126.791826                    
V 15  -2838.097060 -14653.665661  26782.200663      -.060453                    
P 16  20533.245828  -1574.519388  16956.598153    121.198124                    
V 16  17610.455242  12087.911732 -20086.492008      -.015455                    
P 17 -14590.305719  -7723.978893 -20797.283511     38.631549                    
V 17    753.609284 -26474.944416   9125.654114      -.000240                    
P 18  17971.818841  18014.351960   8421.785095   -167.347806                    
V 18 -10229.065205  -3119.714568  28773.539321       .041195                    
P 19   8827.048807 -22589.620018  10689.237096     31.981051                    
V 19   1915.921040  13648.353059  27669.808946       .007253                    
P 20  -3121.402181 -17726.547162 -19659.213665    112.112051                    
V 20  22421.480356  10554.229234 -13115.049538      -.008412                    
P 21  12767.589048  10584.206404  21031.523254     61.230259                    
V 21 -22671.303572  13258.958900   6539.329499      -.011654                    
P 22  23807.294323  10909.671092  -4457.064874    211.441150                    
V 22   3295.427943   5805.639206  30691.268305      -.000166                    
P 23    206.409984 -26415.982171   -657.173035    359.368381                    
V 23   2712.755071    730.836935 -32132.969769       .020250                    
P 24  -2994.750159  17585.097235  19928.603608    101.870768                    
V 24 -22509.788199  10664.758057 -12628.335056       .029197                    
P 25    134.929626 -17547.198813  20349.951842   -173.011091                    
V 25  20684.442982 -14034.026249 -12283.104149      -.028237                    
P 26 -10002.978293  19318.619541  14351.301631    274.065969                    
V 26  -1217.645269 -19300.093740  24831.356203       .073832                    
P 27  -9464.874262 -12093.081303  22351.337917    195.668899                    
V 27  22110.651501 -15030.361238   1135.987858       .027732                    
P 28 -23634.519222 -12213.938090  -2331.061854    -20.067883                    
V 28  -1663.375262  -3846.763896  31426.292851      -.004001                    
P 29   5527.409806  24720.953331   8157.151305    -42.480769                    
V 29  -2694.160536  10167.898688 -29393.375142       .001884                    
P 30  14011.174768  18200.041744 -13766.964190     81.191333                    
V 30 -16111.668067  -5611.074538 -24325.869881       .018849                    
P 31  23755.160391  -6112.782076 -10125.197856    -23.459374                    
V 31 -10084.581652   8669.005423 -28218.929525      -.012248                    
P 32   9011.480835 -11809.986059 -21600.649248    297.718872                    
V 32  23431.810142  16067.801895   1143.035817       .041788                    
EOF
